[{"OBJECT_NAME":"STARLINK-35117","OBJECT_ID":"2025-210L","EPOCH":"2026-03-09T22:20:03.113376","MEAN_MOTION":15.30194126,"ECCENTRICITY":9.174e-5,"INCLINATION":53.1593,"RA_OF_ASC_NODE":306.2643,"ARG_OF_PERICENTER":96.9851,"MEAN_ANOMALY":263.1254,"EPHEMERIS_TYPE":0,"CLASSIFICATION_TYPE":"U","NORAD_CAT_ID":65632,"ELEMENT_SET_NO":999,"REV_AT_EPOCH":2776,"BSTAR":0.00095663604,"MEAN_MOTION_DOT":0.00028076,"MEAN_MOTION_DDOT":0},{"OBJECT_NAME":"COSMOS 2251 DEB","OBJECT_ID":"1993-036BTX","EPOCH":"2026-02-28T17:34:44.973408","MEAN_MOTION":15.25753352,"ECCENTRICITY":0.00216382,"INCLINATION":73.9681,"RA_OF_ASC_NODE":229.3494,"ARG_OF_PERICENTER":13.6287,"MEAN_ANOMALY":346.5492,"EPHEMERIS_TYPE":0,"CLASSIFICATION_TYPE":"U","NORAD_CAT_ID":38487,"ELEMENT_SET_NO":999,"REV_AT_EPOCH":67986,"BSTAR":0.0024802785,"MEAN_MOTION_DOT":0.00064261,"MEAN_MOTION_DDOT":0}]
